{"fetched_at":"2026-07-24T07:06:13.624Z","source":"https://celestrak.org/NORAD/elements/gp.php?GROUP=spire&FORMAT=JSON","constellation":"spire","records":[{"OBJECT_NAME":"LEMUR-2-HUBBLE-4","OBJECT_ID":"2025-135AP","EPOCH":"2026-07-23T18:47:17.894400","CLASSIFICATION_TYPE":"U","MEAN_MOTION":14.93702488,"ECCENTRICITY":0.0003303,"INCLINATION":97.7723,"RA_OF_ASC_NODE":318.2683,"ARG_OF_PERICENTER":142.4259,"MEAN_ANOMALY":217.7192,"EPHEMERIS_TYPE":0,"NORAD_CAT_ID":64565,"ELEMENT_SET_NO":999,"REV_AT_EPOCH":5933,"BSTAR":0.00013394,"MEAN_MOTION_DOT":0.0000136,"MEAN_MOTION_DDOT":0},{"OBJECT_NAME":"LEMUR-2-SEJONG-2","OBJECT_ID":"2025-135BL","EPOCH":"2026-07-23T19:18:19.785024","CLASSIFICATION_TYPE":"U","MEAN_MOTION":14.9697273,"ECCENTRICITY":0.0004488,"INCLINATION":97.7714,"RA_OF_ASC_NODE":319.5855,"ARG_OF_PERICENTER":180.2423,"MEAN_ANOMALY":179.8797,"EPHEMERIS_TYPE":0,"NORAD_CAT_ID":64586,"ELEMENT_SET_NO":999,"REV_AT_EPOCH":5942,"BSTAR":0.00053103,"MEAN_MOTION_DOT":0.00006051,"MEAN_MOTION_DDOT":0},{"OBJECT_NAME":"LEMUR-2-HUBBLE-5","OBJECT_ID":"2025-135BT","EPOCH":"2026-07-23T18:55:39.856800","CLASSIFICATION_TYPE":"U","MEAN_MOTION":14.94230571,"ECCENTRICITY":0.0005018,"INCLINATION":97.7743,"RA_OF_ASC_NODE":318.9523,"ARG_OF_PERICENTER":201.3697,"MEAN_ANOMALY":158.7314,"EPHEMERIS_TYPE":0,"NORAD_CAT_ID":64840,"ELEMENT_SET_NO":999,"REV_AT_EPOCH":5937,"BSTAR":0.00015148,"MEAN_MOTION_DOT":0.00001567,"MEAN_MOTION_DDOT":0},{"OBJECT_NAME":"LEMUR-2-KARENDARRELL","OBJECT_ID":"2025-135BU","EPOCH":"2026-07-23T06:21:59.330592","CLASSIFICATION_TYPE":"U","MEAN_MOTION":15.00584303,"ECCENTRICITY":0.0013037,"INCLINATION":97.7721,"RA_OF_ASC_NODE":320.432,"ARG_OF_PERICENTER":80.3476,"MEAN_ANOMALY":279.922,"EPHEMERIS_TYPE":0,"NORAD_CAT_ID":64841,"ELEMENT_SET_NO":999,"REV_AT_EPOCH":5942,"BSTAR":0.0006026,"MEAN_MOTION_DOT":0.00007565,"MEAN_MOTION_DDOT":0},{"OBJECT_NAME":"LEMUR-2-LUCILLE-ROSE","OBJECT_ID":"2025-135BV","EPOCH":"2026-07-23T18:32:05.244288","CLASSIFICATION_TYPE":"U","MEAN_MOTION":15.00573199,"ECCENTRICITY":0.0015659,"INCLINATION":97.7686,"RA_OF_ASC_NODE":320.9716,"ARG_OF_PERICENTER":163.5108,"MEAN_ANOMALY":196.6628,"EPHEMERIS_TYPE":0,"NORAD_CAT_ID":65403,"ELEMENT_SET_NO":999,"REV_AT_EPOCH":5412,"BSTAR":0.00056043,"MEAN_MOTION_DOT":0.00007034,"MEAN_MOTION_DDOT":0},{"OBJECT_NAME":"LEMUR-2-AFFIE-WAUWIE","OBJECT_ID":"2025-248C","EPOCH":"2026-07-23T05:06:26.155008","CLASSIFICATION_TYPE":"U","MEAN_MOTION":15.28503726,"ECCENTRICITY":0.00093333,"INCLINATION":45.3913,"RA_OF_ASC_NODE":279.5994,"ARG_OF_PERICENTER":293.1633,"MEAN_ANOMALY":66.8272,"EPHEMERIS_TYPE":0,"NORAD_CAT_ID":66295,"ELEMENT_SET_NO":999,"REV_AT_EPOCH":4010,"BSTAR":0.00074289393,"MEAN_MOTION_DOT":0.00020771,"MEAN_MOTION_DDOT":0},{"OBJECT_NAME":"OTTER SDM","OBJECT_ID":"2025-276N","EPOCH":"2026-07-23T20:27:30.000384","CLASSIFICATION_TYPE":"U","MEAN_MOTION":15.20134767,"ECCENTRICITY":0.0004914,"INCLINATION":97.4196,"RA_OF_ASC_NODE":277.7261,"ARG_OF_PERICENTER":215.3658,"MEAN_ANOMALY":144.7252,"EPHEMERIS_TYPE":0,"NORAD_CAT_ID":66678,"ELEMENT_SET_NO":999,"REV_AT_EPOCH":3598,"BSTAR":0.00029271,"MEAN_MOTION_DOT":0.00006263,"MEAN_MOTION_DDOT":0},{"OBJECT_NAME":"LEMUR-2-STAS-GORBUK","OBJECT_ID":"2025-276W","EPOCH":"2026-07-23T03:38:41.930016","CLASSIFICATION_TYPE":"U","MEAN_MOTION":15.19715909,"ECCENTRICITY":0.000425,"INCLINATION":97.4227,"RA_OF_ASC_NODE":277.0873,"ARG_OF_PERICENTER":212.6305,"MEAN_ANOMALY":147.4668,"EPHEMERIS_TYPE":0,"NORAD_CAT_ID":66686,"ELEMENT_SET_NO":999,"REV_AT_EPOCH":3587,"BSTAR":0.00026035,"MEAN_MOTION_DOT":0.00005495,"MEAN_MOTION_DDOT":0},{"OBJECT_NAME":"LEMUR-2-TEODOR","OBJECT_ID":"2025-276DG","EPOCH":"2026-07-23T14:56:03.702048","CLASSIFICATION_TYPE":"U","MEAN_MOTION":15.21404015,"ECCENTRICITY":0.0002058,"INCLINATION":97.4135,"RA_OF_ASC_NODE":277.8327,"ARG_OF_PERICENTER":82.4426,"MEAN_ANOMALY":277.7043,"EPHEMERIS_TYPE":0,"NORAD_CAT_ID":66768,"ELEMENT_SET_NO":999,"REV_AT_EPOCH":3598,"BSTAR":0.00026013,"MEAN_MOTION_DOT":0.00005768,"MEAN_MOTION_DDOT":0},{"OBJECT_NAME":"LEMUR-2-LAILA","OBJECT_ID":"2025-276DQ","EPOCH":"2026-07-23T20:29:33.190368","CLASSIFICATION_TYPE":"U","MEAN_MOTION":15.21634804,"ECCENTRICITY":0.0002749,"INCLINATION":97.4158,"RA_OF_ASC_NODE":278.205,"ARG_OF_PERICENTER":81.5647,"MEAN_ANOMALY":278.5901,"EPHEMERIS_TYPE":0,"NORAD_CAT_ID":66776,"ELEMENT_SET_NO":999,"REV_AT_EPOCH":3602,"BSTAR":0.0002575,"MEAN_MOTION_DOT":0.00005748,"MEAN_MOTION_DDOT":0},{"OBJECT_NAME":"LEMUR-2-CELIJO-SB-PK","OBJECT_ID":"2025-276DW","EPOCH":"2026-07-23T10:55:11.987904","CLASSIFICATION_TYPE":"U","MEAN_MOTION":15.0035289,"ECCENTRICITY":0.0006513,"INCLINATION":97.5182,"RA_OF_ASC_NODE":274.0339,"ARG_OF_PERICENTER":44.3861,"MEAN_ANOMALY":315.7884,"EPHEMERIS_TYPE":0,"NORAD_CAT_ID":66781,"ELEMENT_SET_NO":999,"REV_AT_EPOCH":2806,"BSTAR":0.00049253,"MEAN_MOTION_DOT":0.00006129,"MEAN_MOTION_DDOT":0},{"OBJECT_NAME":"LEMUR-2-FINNIAN","OBJECT_ID":"2025-276DX","EPOCH":"2026-07-23T14:57:47.641248","CLASSIFICATION_TYPE":"U","MEAN_MOTION":15.00686558,"ECCENTRICITY":0.0006873,"INCLINATION":97.5352,"RA_OF_ASC_NODE":274.4854,"ARG_OF_PERICENTER":326.1905,"MEAN_ANOMALY":33.888,"EPHEMERIS_TYPE":0,"NORAD_CAT_ID":66782,"ELEMENT_SET_NO":999,"REV_AT_EPOCH":2546,"BSTAR":0.0004467,"MEAN_MOTION_DOT":0.00005601,"MEAN_MOTION_DDOT":0},{"OBJECT_NAME":"LEMUR-2-STARLIGHT","OBJECT_ID":"2025-276DY","EPOCH":"2026-07-23T11:27:50.745888","CLASSIFICATION_TYPE":"U","MEAN_MOTION":14.9943255,"ECCENTRICITY":0.0014425,"INCLINATION":97.5245,"RA_OF_ASC_NODE":273.878,"ARG_OF_PERICENTER":21.9305,"MEAN_ANOMALY":338.2533,"EPHEMERIS_TYPE":0,"NORAD_CAT_ID":66783,"ELEMENT_SET_NO":999,"REV_AT_EPOCH":3563,"BSTAR":0.00052363,"MEAN_MOTION_DOT":0.00006375,"MEAN_MOTION_DDOT":0},{"OBJECT_NAME":"LEMUR-2-TARTIFLETTE","OBJECT_ID":"2025-276DZ","EPOCH":"2026-07-23T03:25:11.820288","CLASSIFICATION_TYPE":"U","MEAN_MOTION":14.99409339,"ECCENTRICITY":0.00137297,"INCLINATION":97.5241,"RA_OF_ASC_NODE":273.5617,"ARG_OF_PERICENTER":32.0065,"MEAN_ANOMALY":328.199,"EPHEMERIS_TYPE":0,"NORAD_CAT_ID":66784,"ELEMENT_SET_NO":999,"REV_AT_EPOCH":3558,"BSTAR":0.00051868028,"MEAN_MOTION_DOT":0.00006309,"MEAN_MOTION_DDOT":0},{"OBJECT_NAME":"LEMUR-2-VUKASIN","OBJECT_ID":"2025-276EA","EPOCH":"2026-07-23T15:21:33.496128","CLASSIFICATION_TYPE":"U","MEAN_MOTION":15.0060694,"ECCENTRICITY":0.0001745,"INCLINATION":97.5196,"RA_OF_ASC_NODE":274.4134,"ARG_OF_PERICENTER":20.5196,"MEAN_ANOMALY":339.6098,"EPHEMERIS_TYPE":0,"NORAD_CAT_ID":66785,"ELEMENT_SET_NO":999,"REV_AT_EPOCH":3561,"BSTAR":0.0004477,"MEAN_MOTION_DOT":0.000056,"MEAN_MOTION_DDOT":0},{"OBJECT_NAME":"LEMUR-2-HOTSPUR-TOM","OBJECT_ID":"2025-276EB","EPOCH":"2026-07-23T03:17:54.832416","CLASSIFICATION_TYPE":"U","MEAN_MOTION":14.99305596,"ECCENTRICITY":0.00134557,"INCLINATION":97.5217,"RA_OF_ASC_NODE":273.5281,"ARG_OF_PERICENTER":23.8988,"MEAN_ANOMALY":336.2857,"EPHEMERIS_TYPE":0,"NORAD_CAT_ID":66786,"ELEMENT_SET_NO":999,"REV_AT_EPOCH":3551,"BSTAR":0.00053078591,"MEAN_MOTION_DOT":0.00006439,"MEAN_MOTION_DDOT":0}]}
